IRIDIUM 144             
1 43249U 18030A   24342.89642682  .00000008  00000+0 -43732-5 0  9996
2 43249  86.3988 162.9469 0001691  85.8835 274.2554 14.34217671350404
IRIDIUM 149             
1 43250U 18030B   24342.90276958  .00000018  00000+0 -71273-6 0  9992
2 43250  86.3987 162.9176 0001751  94.9693 265.1703 14.34217760350426
IRIDIUM 157             
1 43251U 18030C   24342.92179782  .00000045  00000+0  88361-5 0  9996
2 43251  86.3982 162.9503 0002059  93.0638 267.0793 14.34217741350404
IRIDIUM 140             
1 43252U 18030D   24342.94083387  .00000254  00000+0  83706-4 0  9993
2 43252  86.3982 162.9566 0001950  86.9341 273.2078 14.34217163350464
IRIDIUM 145             
1 43253U 18030E   24342.92813936  .00000036  00000+0  57010-5 0  9991
2 43253  86.3981 162.9351 0001575  89.9137 270.2239 14.34217725350397
IRIDIUM 146             
1 43254U 18030F   24342.90911138  .00000040  00000+0  71044-5 0  9991
2 43254  86.3980 162.9573 0001642  90.2125 269.9259 14.34217396350403
IRIDIUM 148             
1 43255U 18030G   24342.87739880  .00000081  00000+0  21885-4 0  9992
2 43255  86.3983 163.0050 0001820  94.0525 266.0879 14.34217844350430
IRIDIUM 142             
1 43256U 18030H   24342.91545312  .00000185  00000+0  59094-4 0  9991
2 43256  86.3981 162.8986 0001528  96.1512 263.9858 14.34216145350401
